
# Worst residual: 15.97 km
# MJD 58821.000000 (2019 Dec  4  0:00)
1964-040B = NORAD 00837 = Vela 2B
1 00837U 64040B   19338.49918769  .00000000  00000-0  00000-0 0  4679
2 00837 037.2694 170.9596 6163293 314.4013 291.3089 00.24001374    07

# Worst residual: 17.76 km
# MJD 58822.000000 (2019 Dec  5  0:00)
1964-040B = NORAD 00837 = Vela 2B
1 00837U 64040B   19339.49918769  .00000000  00000-0  00000-0 0  4670
2 00837 037.2994 170.9365 6158254 314.3913 017.7036 00.23986611    00

# Worst residual: 7.12 km
# MJD 58823.000000 (2019 Dec  6  0:00)
1964-040B = NORAD 00837 = Vela 2B
1 00837U 64040B   19340.49918769  .00000000  00000-0  00000-0 0  4672
2 00837 037.3150 170.8989 6154291 314.4141 104.0811 00.23981577    04

# Worst residual: 7.53 km
# MJD 58824.000000 (2019 Dec  7  0:00)
1964-040B = NORAD 00837 = Vela 2B
1 00837U 64040B   19341.49918769  .00000000  00000-0  00000-0 0  4673
2 00837 037.3327 170.8530 6156272 314.3501 190.7255 00.24010285    06

# Worst residual: 7.45 km
# MJD 58825.000000 (2019 Dec  8  0:00)
1964-040B = NORAD 00837 = Vela 2B
1 00837U 64040B   19342.49918769  .00000000  00000-0  00000-0 0  4674
2 00837 037.3403 170.8176 6154487 314.3566 277.2451 00.24014708    07

# Worst residual: 25.02 km
# MJD 58826.000000 (2019 Dec  9  0:00)
1964-040B = NORAD 00837 = Vela 2B
1 00837U 64040B   19343.49918769  .00000000  00000-0  00000-0 0  4675
2 00837 037.3476 170.7826 6139677 314.3279 003.6816 00.24053967    09

# Worst residual: 12.73 km
# MJD 58827.000000 (2019 Dec 10  0:00)
1964-040B = NORAD 00837 = Vela 2B
1 00837U 64040B   19344.49918769  .00000000  00000-0  00000-0 0  4676
2 00837 037.3646 170.7288 6146610 314.3248 090.0732 00.24009435    09

# Worst residual: 4.28 km
# MJD 58828.000000 (2019 Dec 11  0:00)
1964-040B = NORAD 00837 = Vela 2B
1 00837U 64040B   19345.49918769  .00000000  00000-0  00000-0 0  4677
2 00837 037.3962 170.6443 6144847 314.4249 176.3533 00.23998235    05

# Worst residual: 4.92 km
# MJD 58829.000000 (2019 Dec 12  0:00)
1964-040B = NORAD 00837 = Vela 2B
1 00837U 64040B   19346.49918769  .00000000  00000-0  00000-0 0  4678
2 00837 037.4280 170.5851 6144542 314.4898 262.7315 00.24011015    04

# Worst residual: 37.66 km
# MJD 58830.000000 (2019 Dec 13  0:00)
1964-040B = NORAD 00837 = Vela 2B
1 00837U 64040B   19347.49918769  .00000000  00000-0  00000-0 0  4679
2 00837 037.4693 170.5671 6136892 314.5093 349.1643 00.24041913    03

# Worst residual: 13.61 km
# MJD 58831.000000 (2019 Dec 14  0:00)
1964-040B = NORAD 00837 = Vela 2B
1 00837U 64040B   19348.49918769  .00000000  00000-0  00000-0 0  4670
2 00837 037.4511 170.5153 6138046 314.4861 075.6592 00.24022194    06

# Worst residual: 4.38 km
# MJD 58832.000000 (2019 Dec 15  0:00)
1964-040B = NORAD 00837 = Vela 2B
1 00837U 64040B   19349.49918769  .00000000  00000-0  00000-0 0  4671
2 00837 037.4685 170.4665 6133558 314.5948 161.8914 00.23992888    06

# Worst residual: 5.77 km
# MJD 58833.000000 (2019 Dec 16  0:00)
1964-040B = NORAD 00837 = Vela 2B
1 00837U 64040B   19350.49918769  .00000000  00000-0  00000-0 0  4673
2 00837 037.4701 170.4469 6131976 314.6574 248.1331 00.24005121    03

# Worst residual: 16.98 km
# MJD 58834.000000 (2019 Dec 17  0:00)
1964-040B = NORAD 00837 = Vela 2B
1 00837U 64040B   19351.49918769  .00000000  00000-0  00000-0 0  4674
2 00837 037.5005 170.4149 6124410 314.7044 334.4974 00.24032448    08

# Worst residual: 8.69 km
# MJD 58835.000000 (2019 Dec 18  0:00)
1964-040B = NORAD 00837 = Vela 2B
1 00837U 64040B   19352.49918769  .00000000  00000-0  00000-0 0  4675
2 00837 037.5004 170.3976 6124682 314.7333 060.8811 00.23967636    01

# Worst residual: 3.50 km
# MJD 58836.000000 (2019 Dec 19  0:00)
1964-040B = NORAD 00837 = Vela 2B
1 00837U 64040B   19353.49918769  .00000000  00000-0  00000-0 0  4676
2 00837 037.5138 170.3638 6116211 314.7048 147.4072 00.23987112    08

# Worst residual: 5.52 km
# MJD 58837.000000 (2019 Dec 20  0:00)
1964-040B = NORAD 00837 = Vela 2B
1 00837U 64040B   19354.49918769  .00000000  00000-0  00000-0 0  4677
2 00837 037.5306 170.3238 6114029 314.7341 233.7708 00.23993795    01

# Worst residual: 30.42 km
# MJD 58838.000000 (2019 Dec 21  0:00)
1964-040B = NORAD 00837 = Vela 2B
1 00837U 64040B   19355.49918769  .00000000  00000-0  00000-0 0  4678
2 00837 037.5577 170.2832 6103522 314.8449 319.9729 00.24048535    00

# Worst residual: 21.88 km
# MJD 58839.000000 (2019 Dec 22  0:00)
1964-040B = NORAD 00837 = Vela 2B
1 00837U 64040B   19356.49918769  .00000000  00000-0  00000-0 0  4679
2 00837 037.5689 170.2499 6099163 314.7047 046.5870 00.24052320    08

# Worst residual: 3.57 km
# MJD 58840.000000 (2019 Dec 23  0:00)
1964-040B = NORAD 00837 = Vela 2B
1 00837U 64040B   19357.49918769  .00000000  00000-0  00000-0 0  4670
2 00837 037.5867 170.1871 6100554 314.7911 132.9261 00.24016637    01

# Worst residual: 3.15 km
# MJD 58841.000000 (2019 Dec 24  0:00)
1964-040B = NORAD 00837 = Vela 2B
1 00837U 64040B   19358.49918769  .00000000  00000-0  00000-0 0  4671
2 00837 037.5837 170.1798 6093561 314.7893 219.3890 00.24009060    04

# Worst residual: 8.15 km
# MJD 58842.000000 (2019 Dec 25  0:00)
1964-040B = NORAD 00837 = Vela 2B
1 00837U 64040B   19359.49918769  .00000000  00000-0  00000-0 0  4672
2 00837 037.5759 170.1577 6088983 314.8077 305.8225 00.24016448    00

# Worst residual: 24.88 km
# MJD 58843.000000 (2019 Dec 26  0:00)
1964-040B = NORAD 00837 = Vela 2B
1 00837U 64040B   19360.49918769  .00000000  00000-0  00000-0 0  4674
2 00837 037.5719 170.1772 6081947 314.6956 032.3256 00.24024160    06

# Worst residual: 2.93 km
# MJD 58844.000000 (2019 Dec 27  0:00)
1964-040B = NORAD 00837 = Vela 2B
1 00837U 64040B   19361.49918769  .00000000  00000-0  00000-0 0  4675
2 00837 037.5833 170.0785 6080294 314.7826 118.7080 00.24003153    00

# Worst residual: 4.04 km
# MJD 58845.000000 (2019 Dec 28  0:00)
1964-040B = NORAD 00837 = Vela 2B
1 00837U 64040B   19362.49918769  .00000000  00000-0  00000-0 0  4676
2 00837 037.6201 169.9982 6074567 314.8372 205.1359 00.23999025    00

# Worst residual: 7.41 km
# MJD 58846.000000 (2019 Dec 29  0:00)
1964-040B = NORAD 00837 = Vela 2B
1 00837U 64040B   19363.49918769  .00000000  00000-0  00000-0 0  4677
2 00837 037.7009 169.9126 6071187 314.9265 291.4990 00.24012417    05

# Worst residual: 27.92 km
# MJD 58847.000000 (2019 Dec 30  0:00)
1964-040B = NORAD 00837 = Vela 2B
1 00837U 64040B   19364.49918769  .00000000  00000-0  00000-0 0  4678
2 00837 037.7296 169.9201 6072921 314.9035 017.9335 00.23960984    03

# Worst residual: 10.63 km
# MJD 58848.000000 (2019 Dec 31  0:00)
1964-040B = NORAD 00837 = Vela 2B
1 00837U 64040B   19365.49918769  .00000000  00000-0  00000-0 0  4679
2 00837 037.7349 169.8730 6063125 314.9214 104.3942 00.23985542    05
